ORBCOMM FM115           
1 41186U 15081H   24280.85901496  .00004474  00000+0  93005-3 0  9991
2 41186  46.9967 163.5023 0000746 295.2046  64.8763 14.61367268470704
ORBCOMM FM108           
1 41187U 15081J   24280.85206270  .00006039  00000+0  13618-2 0  9990
2 41187  47.0034 222.6057 0002283 228.1038 131.9652 14.57147275469834
ORBCOMM FM117           
1 41188U 15081K   24280.88686044  .00005753  00000+0  12991-2 0  9990
2 41188  46.9996 221.2885 0003005 240.7295 119.3289 14.57150035469881
ORBCOMM FM116           
1 41189U 15081L   24280.80794748  .00004809  00000+0  10915-2 0  9999
2 41189  47.0014 311.4984 0003020 310.1683  49.8938 14.57174511468687
